{"type": "FeatureCollection", "features": [ {"type": "Feature", "properties": {"norad_id": 66979, "name": "STARLINK-36107", "group": "last-30-days", "lat": -21.71194424106072, "lon": 85.44562709432151, "alt_km": 345.6324700367859, "timestamp": "2025-12-21T22:41:40.167360+00:00", "meta": {"OBJECT_NAME": "STARLINK-36107", "OBJECT_ID": "2025-288W", "EPOCH": "2025-12-21T14:00:01.999872", "MEAN_MOTION": 15.76408798, "ECCENTRICITY": 0.00012592, "INCLINATION": 43.0008, "RA_OF_ASC_NODE": 112.943, "ARG_OF_PERICENTER": 277.4133, "MEAN_ANOMALY": 152.2982, "EPHEMERIS_TYPE": 0, "CLASSIFICATION_TYPE": "U", "NORAD_CAT_ID": 66979, "ELEMENT_SET_NO": 999, "REV_AT_EPOCH": 325, "BSTAR": -0.010703995, "MEAN_MOTION_DOT": -0.01531784, "MEAN_MOTION_DDOT": 0}, "tle": {"line1": "1 66979U 25288W   25355.58335648 -.01531784  00000+0 -10704-1 0  9997", "line2": "2 66979  43.0008 112.9430 0001259 277.4133 152.2982 15.76408798  3252"}}, "geometry": {"type": "Point", "coordinates": [85.44562709432151, -21.71194424106072]}}, {"type": "Feature", "properties": {"norad_id": 66980, "name": "STARLINK-36086", "group": "last-30-days", "lat": -20.516138440407808, "lon": 87.06112756810245, "alt_km": 345.7626206049508, "timestamp": "2025-12-21T22:41:40.167370+00:00", "meta": {"OBJECT_NAME": "STARLINK-36086", "OBJECT_ID": "2025-288X", "EPOCH": "2025-12-21T14:00:01.999872", "MEAN_MOTION": 15.7630648, "ECCENTRICITY": 0.0001359, "INCLINATION": 43.0009, "RA_OF_ASC_NODE": 112.9377, "ARG_OF_PERICENTER": 271.1048, "MEAN_ANOMALY": 160.6319, "EPHEMERIS_TYPE": 0, "CLASSIFICATION_TYPE": "U", "NORAD_CAT_ID": 66980, "ELEMENT_SET_NO": 999, "REV_AT_EPOCH": 325, "BSTAR": -0.010278586, "MEAN_MOTION_DOT": -0.01472353, "MEAN_MOTION_DDOT": 0}, "tle": {"line1": "1 66980U 25288X   25355.58335648 -.01472353  00000+0 -10279-1 0  9992", "line2": "2 66980  43.0009 112.9377 0001359 271.1048 160.6319 15.76306480  3254"}}, "geometry": {"type": "Point", "coordinates": [87.06112756810245, -20.516138440407808]}}, {"type": "Feature", "properties": {"norad_id": 66981, "name": "STARLINK-36142", "group": "last-30-days", "lat": -19.314953599700736, "lon": 88.63896758976496, "alt_km": 345.4296026408765, "timestamp": "2025-12-21T22:41:40.167382+00:00", "meta": {"OBJECT_NAME": "STARLINK-36142", "OBJECT_ID": "2025-288Y", "EPOCH": "2025-12-21T14:00:01.999872", "MEAN_MOTION": 15.76222174, "ECCENTRICITY": 0.00019085, "INCLINATION": 43.0008, "RA_OF_ASC_NODE": 112.9325, "ARG_OF_PERICENTER": 278.0946, "MEAN_ANOMALY": 155.6324, "EPHEMERIS_TYPE": 0, "CLASSIFICATION_TYPE": "U", "NORAD_CAT_ID": 66981, "ELEMENT_SET_NO": 999, "REV_AT_EPOCH": 325, "BSTAR": -0.0099101309, "MEAN_MOTION_DOT": -0.01421253, "MEAN_MOTION_DDOT": 0}, "tle": {"line1": "1 66981U 25288Y   25355.58335648 -.01421253  00000+0 -99101-2 0  9998", "line2": "2 66981  43.0008 112.9325 0001908 278.0946 155.6324 15.76222174  3257"}}, "geometry": {"type": "Point", "coordinates": [88.63896758976496, -19.314953599700736]}}, {"type": "Feature", "properties": {"norad_id": 66982, "name": "STARLINK-36113", "group": "last-30-days", "lat": -18.091515815914867, "lon": 90.20458137945707, "alt_km": 345.9272084293325, "timestamp": "2025-12-21T22:41:40.167394+00:00", "meta": {"OBJECT_NAME": "STARLINK-36113", "OBJECT_ID": "2025-288Z", "EPOCH": "2025-12-21T14:00:01.999872", "MEAN_MOTION": 15.76143056, "ECCENTRICITY": 0.00014433, "INCLINATION": 43.0005, "RA_OF_ASC_NODE": 112.9273, "ARG_OF_PERICENTER": 263.3173, "MEAN_ANOMALY": 172.4088, "EPHEMERIS_TYPE": 0, "CLASSIFICATION_TYPE": "U", "NORAD_CAT_ID": 66982, "ELEMENT_SET_NO": 999, "REV_AT_EPOCH": 325, "BSTAR": -0.0094989305, "MEAN_MOTION_DOT": -0.01364186, "MEAN_MOTION_DDOT": 0}, "tle": {"line1": "1 66982U 25288Z   25355.58335648 -.01364186  00000+0 -94989-2 0  9999", "line2": "2 66982  43.0005 112.9273 0001443 263.3173 172.4088 15.76143056  3255"}}, "geometry": {"type": "Point", "coordinates": [90.20458137945707, -18.091515815914867]}}, {"type": "Feature", "properties": {"norad_id": 66983, "name": "STARLINK-36145", "group": "last-30-days", "lat": -15.6197018375878, "lon": 93.25896357814696, "alt_km": 345.52428432929446, "timestamp": "2025-12-21T22:41:40.167404+00:00", "meta": {"OBJECT_NAME": "STARLINK-36145", "OBJECT_ID": "2025-288AA", "EPOCH": "2025-12-21T14:00:01.999872", "MEAN_MOTION": 15.75943451, "ECCENTRICITY": 0.00013889, "INCLINATION": 43.0004, "RA_OF_ASC_NODE": 112.9176, "ARG_OF_PERICENTER": 284.3346, "MEAN_ANOMALY": 155.3928, "EPHEMERIS_TYPE": 0, "CLASSIFICATION_TYPE": "U", "NORAD_CAT_ID": 66983, "ELEMENT_SET_NO": 999, "REV_AT_EPOCH": 325, "BSTAR": -0.008208489, "MEAN_MOTION_DOT": -0.01167418, "MEAN_MOTION_DDOT": 0}, "tle": {"line1": "1 66983U 25288AA  25355.58335648 -.01167418  00000+0 -82085-2 0  9993", "line2": "2 66983  43.0004 112.9176 0001388 284.3346 155.3928 15.75943451  3259"}}, "geometry": {"type": "Point", "coordinates": [93.25896357814696, -15.6197018375878]}}, {"type": "Feature", "properties": {"norad_id": 66984, "name": "STARLINK-35591", "group": "last-30-days", "lat": -16.86541152793488, "lon": 91.73592217812438, "alt_km": 345.84184067720616, "timestamp": "2025-12-21T22:41:40.167414+00:00", "meta": {"OBJECT_NAME": "STARLINK-35591", "OBJECT_ID": "2025-288AB", "EPOCH": "2025-12-21T14:00:01.999872", "MEAN_MOTION": 15.76044761, "ECCENTRICITY": 0.00011343, "INCLINATION": 43.0004, "RA_OF_ASC_NODE": 112.9217, "ARG_OF_PERICENTER": 275.6175, "MEAN_ANOMALY": 162.1161, "EPHEMERIS_TYPE": 0, "CLASSIFICATION_TYPE": "U", "NORAD_CAT_ID": 66984, "ELEMENT_SET_NO": 999, "REV_AT_EPOCH": 325, "BSTAR": -0.0090233653, "MEAN_MOTION_DOT": -0.01297738, "MEAN_MOTION_DDOT": 0}, "tle": {"line1": "1 66984U 25288AB  25355.58335648 -.01297738  00000+0 -90234-2 0  9998", "line2": "2 66984  43.0004 112.9217 0001134 275.6175 162.1161 15.76044761  3250"}}, "geometry": {"type": "Point", "coordinates": [91.73592217812438, -16.86541152793488]}}, {"type": "Feature", "properties": {"norad_id": 66985, "name": "STARLINK-36103", "group": "last-30-days", "lat": -14.370883899137391, "lon": 94.7533612001375, "alt_km": 345.66457740298756, "timestamp": "2025-12-21T22:41:40.167423+00:00", "meta": {"OBJECT_NAME": "STARLINK-36103", "OBJECT_ID": "2025-288AC", "EPOCH": "2025-12-21T14:00:01.999872", "MEAN_MOTION": 15.75824887, "ECCENTRICITY": 0.00018535, "INCLINATION": 43.0004, "RA_OF_ASC_NODE": 112.912, "ARG_OF_PERICENTER": 269.924, "MEAN_ANOMALY": 171.8129, "EPHEMERIS_TYPE": 0, "CLASSIFICATION_TYPE": "U", "NORAD_CAT_ID": 66985, "ELEMENT_SET_NO": 999, "REV_AT_EPOCH": 325, "BSTAR": -0.0075484209, "MEAN_MOTION_DOT": -0.01078184, "MEAN_MOTION_DDOT": 0}, "tle": {"line1": "1 66985U 25288AC  25355.58335648 -.01078184  00000+0 -75484-2 0  9991", "line2": "2 66985  43.0004 112.9120 0001853 269.9240 171.8129 15.75824887  3256"}}, "geometry": {"type": "Point", "coordinates": [94.7533612001375, -14.370883899137391]}}, {"type": "Feature", "properties": {"norad_id": 66986, "name": "STARLINK-36135", "group": "last-30-days", "lat": -13.106066948856174, "lon": 96.23899209821278, "alt_km": 345.6001673237988, "timestamp": "2025-12-21T22:41:40.167433+00:00", "meta": {"OBJECT_NAME": "STARLINK-36135", "OBJECT_ID": "2025-288AD", "EPOCH": "2025-12-21T14:00:01.999872", "MEAN_MOTION": 15.75705664, "ECCENTRICITY": 0.00014404, "INCLINATION": 43.0003, "RA_OF_ASC_NODE": 112.9067, "ARG_OF_PERICENTER": 273.1268, "MEAN_ANOMALY": 170.6109, "EPHEMERIS_TYPE": 0, "CLASSIFICATION_TYPE": "U", "NORAD_CAT_ID": 66986, "ELEMENT_SET_NO": 999, "REV_AT_EPOCH": 325, "BSTAR": -0.0064441586, "MEAN_MOTION_DOT": -0.00915531, "MEAN_MOTION_DDOT": 0}, "tle": {"line1": "1 66986U 25288AD  25355.58335648 -.00915531  00000+0 -64442-2 0  9999", "line2": "2 66986  43.0003 112.9067 0001440 273.1268 170.6109 15.75705664  3251"}}, "geometry": {"type": "Point", "coordinates": [96.23899209821278, -13.106066948856174]}}, {"type": "Feature", "properties": {"norad_id": 66987, "name": "STARLINK-36147", "group": "last-30-days", "lat": -11.837028290126371, "lon": 97.70525351567781, "alt_km": 345.4522765479851, "timestamp": "2025-12-21T22:41:40.167445+00:00", "meta": {"OBJECT_NAME": "STARLINK-36147", "OBJECT_ID": "2025-288AE", "EPOCH": "2025-12-21T14:00:01.999872", "MEAN_MOTION": 15.75623971, "ECCENTRICITY": 0.00016745, "INCLINATION": 43.0007, "RA_OF_ASC_NODE": 112.902, "ARG_OF_PERICENTER": 272.8933, "MEAN_ANOMALY": 172.815, "EPHEMERIS_TYPE": 0, "CLASSIFICATION_TYPE": "U", "NORAD_CAT_ID": 66987, "ELEMENT_SET_NO": 999, "REV_AT_EPOCH": 325, "BSTAR": -0.0057697686, "MEAN_MOTION_DOT": -0.00825793, "MEAN_MOTION_DDOT": 0}, "tle": {"line1": "1 66987U 25288AE  25355.58335648 -.00825793  00000+0 -57698-2 0  9995", "line2": "2 66987  43.0007 112.9020 0001674 272.8933 172.8150 15.75623971  3259"}}, "geometry": {"type": "Point", "coordinates": [97.70525351567781, -11.837028290126371]}}, {"type": "Feature", "properties": {"norad_id": 66988, "name": "YAOGAN-47", "group": "last-30-days", "lat": 42.49715350926183, "lon": 54.13138190044417, "alt_km": 492.2838309559984, "timestamp": "2025-12-21T22:41:40.167455+00:00", "meta": {"OBJECT_NAME": "YAOGAN-47", "OBJECT_ID": "2025-289A", "EPOCH": "2025-12-20T02:21:43.539840", "MEAN_MOTION": 15.23243112, "ECCENTRICITY": 6.467e-05, "INCLINATION": 97.5265, "RA_OF_ASC_NODE": 59.2376, "ARG_OF_PERICENTER": 91.4531, "MEAN_ANOMALY": 268.678, "EPHEMERIS_TYPE": 0, "CLASSIFICATION_TYPE": "U", "NORAD_CAT_ID": 66988, "ELEMENT_SET_NO": 999, "REV_AT_EPOCH": 166, "BSTAR": 0.00010945697, "MEAN_MOTION_DOT": 2.52e-05, "MEAN_MOTION_DDOT": 0}, "tle": {"line1": "1 66988U 25289A   25354.09842060  .00002520  00000+0  10946-3 0  9992", "line2": "2 66988  97.5265  59.2376 0000646  91.4531 268.6780 15.23243112  1668"}}, "geometry": {"type": "Point", "coordinates": [54.13138190044417, 42.49715350926183]}}]}